[{"OBJECT_NAME":"STARLINK-32352","OBJECT_ID":"2024-202C","EPOCH":"2026-03-09T11:07:06.441600","MEAN_MOTION":15.2759426,"ECCENTRICITY":7.462e-5,"INCLINATION":42.9951,"RA_OF_ASC_NODE":227.9627,"ARG_OF_PERICENTER":262.733,"MEAN_ANOMALY":97.3437,"EPHEMERIS_TYPE":0,"CLASSIFICATION_TYPE":"U","NORAD_CAT_ID":61847,"ELEMENT_SET_NO":999,"REV_AT_EPOCH":7543,"BSTAR":-0.00018270001,"MEAN_MOTION_DOT":-5.288e-5,"MEAN_MOTION_DDOT":0},{"OBJECT_NAME":"TEVEL2-8","OBJECT_ID":"2025-052AF","EPOCH":"2026-03-09T16:02:08.542752","MEAN_MOTION":15.28392908,"ECCENTRICITY":0.0008031,"INCLINATION":97.4055,"RA_OF_ASC_NODE":324.2923,"ARG_OF_PERICENTER":124.9191,"MEAN_ANOMALY":235.2804,"EPHEMERIS_TYPE":0,"CLASSIFICATION_TYPE":"U","NORAD_CAT_ID":63239,"ELEMENT_SET_NO":999,"REV_AT_EPOCH":5480,"BSTAR":0.00069303947,"MEAN_MOTION_DOT":0.0001913,"MEAN_MOTION_DDOT":0}]
